NORAD_CAT_ID,OBJECT_NAME,OBJECT_TYPE,EPOCH,MEAN_MOTION,ECCENTRICITY,INCLINATION,RA_OF_ASC_NODE,ARG_OF_PERICENTER,MEAN_ANOMALY,BSTAR,MEAN_MOTION_DOT,MEAN_MOTION_DDOT,TLE_LINE0,TLE_LINE1,TLE_LINE2,SEMIMAJOR_AXIS,PERIOD,APOGEE,PERIGEE,DECAYED
53166.0,STARLINK-4110,PAYLOAD,2022-10-15 22:00:01,15.08813138,0.0001726,53.2209,334.1554,39.9583,132.6423,0.0009876,0.00015453,0.0,0 STARLINK-4110,1 53166U 22083AL  22288.91668981  .00015453  00000-0  98760-3 0  9997,2 53166  53.2209 334.1554 0001726  39.9583 132.6423 15.08813138  1305,6917.962,95.439,541.0219999999998,538.633,0.0
53166.0,STARLINK-4110,PAYLOAD,2022-10-16 14:00:01,15.08826161,0.0001906,53.2202,331.1652,35.0144,160.6851,0.00079381,0.00012363,0.0,0 STARLINK-4110,1 53166U 22083AL  22289.58334491  .00012363  00000-0  79381-3 0  9992,2 53166  53.2202 331.1652 0001906  35.0144 160.6851 15.08826161 14775,6917.9230000000025,95.438,541.106,538.469,0.0
53166.0,STARLINK-4110,PAYLOAD,2022-10-16 22:00:00,15.08805708,0.0001644,53.2204,329.6672,37.4119,169.865,0.0023998,0.00038076,0.0,0 STARLINK-4110,1 53166U 22083AL  22289.91667824  .00038076  00000-0  23998-2 0  9999,2 53166  53.2204 329.6672 0001644  37.4119 169.8650 15.08805708  1305,6917.985,95.44,540.988,538.7130000000002,0.0
53166.0,STARLINK-4110,PAYLOAD,2022-10-17 14:00:01,15.08805791,0.0001942,53.2199,326.6764,47.7247,182.8142,0.0033336,0.00053117,0.0,0 STARLINK-4110,1 53166U 22083AL  22290.58334491  .00053117  00000-0  33336-2 0  9995,2 53166  53.2199 326.6764 0001942  47.7247 182.8142 15.08805791  1307,6917.985,95.44,541.193,538.506,0.0
53166.0,STARLINK-4110,PAYLOAD,2022-10-17 22:00:00,15.08812373,0.0001744,53.2201,325.1783,53.3654,188.7457,0.0027776,0.00044161,0.0,0 STARLINK-4110,1 53166U 22083AL  22290.91667824  .00044161  00000-0  27776-2 0  9991,2 53166  53.2201 325.1783 0001744  53.3654 188.7457 15.08812373 14976,6917.965,95.439,541.036,538.623,0.0
53166.0,STARLINK-4110,PAYLOAD,2022-10-18 14:00:01,15.08807991,0.0001858,53.2199,322.1873,46.9525,218.3347,0.0025458,0.00040426,0.0,0 STARLINK-4110,1 53166U 22083AL  22291.58334491  .00040426  00000-0  25458-2 0  9991,2 53166  53.2199 322.1873 0001858  46.9525 218.3347 15.08807991 15070,6917.978,95.44,541.129,538.558,0.0
53166.0,STARLINK-4110,PAYLOAD,2022-10-18 22:00:00,15.0880954,0.0001710999999999,53.2199,320.6894,53.0853,223.7834,0.0030169,0.00048013,0.0,0 STARLINK-4110,1 53166U 22083AL  22291.91667824  .00048013  00000-0  30169-2 0  9992,2 53166  53.2199 320.6894 0001711  53.0853 223.7834 15.08809540  1301,6917.973000000001,95.439,541.0219999999998,538.655,0.0
53166.0,STARLINK-4110,PAYLOAD,2022-10-19 06:00:00,15.08853547,0.0001798,53.2199,319.1942,52.7006,235.7427,-0.0012023,-0.00019379,0.0,0 STARLINK-4110,1 53166U 22083AL  22292.25001157 -.00019379  00000-0 -12023-2 0  9995,2 53166  53.2199 319.1942 0001798  52.7006 235.7427 15.08853547 15176,6917.839,95.437,540.948,538.46,0.0
53166.0,STARLINK-4110,PAYLOAD,2022-10-19 14:00:01,15.08841778,0.0001854,53.2195,317.6987,46.3599,253.6861,-0.00076069,-0.00012375,0.0,0 STARLINK-4110,1 53166U 22083AL  22292.58334491 -.00012375  00000-0 -76069-3 0  9991,2 53166  53.2195 317.6987 0001854  46.3599 253.6861 15.08841778  1307,6917.875,95.437,541.023,538.457,0.0
53166.0,STARLINK-4110,PAYLOAD,2022-10-19 22:00:00,15.08834333,0.0001710999999999,53.2174,316.203,58.7314,252.8935,0.00028953,4.322e-05,0.0,0 STARLINK-4110,1 53166U 22083AL  22292.91667824  .00004322  00000-0  28953-3 0  9997,2 53166  53.2174 316.2030 0001711  58.7314 252.8935 15.08834333  1304,6917.898,95.438,540.946,538.5790000000002,0.0
53166.0,STARLINK-4110,PAYLOAD,2022-10-20 06:00:00,15.08853859,0.0001821999999999,53.2195,314.7055,50.4972,272.7287,-0.0010103999999999,-0.00016339,0.0,0 STARLINK-4110,1 53166U 22083AL  22293.25001157 -.00016339  00000-0 -10104-2 0  9997,2 53166  53.2195 314.7055 0001822  50.4972 272.7287 15.08853859 15321,6917.8380000000025,95.437,540.9630000000002,538.443,0.0
53166.0,STARLINK-4110,PAYLOAD,2022-10-20 14:00:01,15.08858059,0.0001873,53.2189,313.2101,44.4893,290.3375,-0.0017442999999999,-0.00027956,0.0,0 STARLINK-4110,1 53166U 22083AL  22293.58334491 -.00027956  00000-0 -17443-2 0  9993,2 53166  53.2189 313.2101 0001873  44.4893 290.3375 15.08858059  1305,6917.825,95.436,540.986,538.394,0.0
53166.0,STARLINK-4110,PAYLOAD,2022-10-20 22:00:00,15.08801718,0.0001686,53.2191,311.712,50.5613,295.8674,0.0035236999999999,0.0005618,0.0,0 STARLINK-4110,1 53166U 22083AL  22293.91667824  .00056180  00000-0  35237-2 0  9999,2 53166  53.2191 311.7120 0001686  50.5613 295.8674 15.08801718  1304,6917.996999999999,95.44,541.029,538.696,0.0
53166.0,STARLINK-4110,PAYLOAD,2022-10-21 14:00:01,15.0886092,0.0001908,53.2189,308.7211,43.4117,326.1953,-0.00065147,-0.00010647,0.0,0 STARLINK-4110,1 53166U 22083AL  22294.58334491 -.00010647  00000-0 -65147-3 0  9998,2 53166  53.2189 308.7211 0001908  43.4117 326.1953 15.08860920 15533,6917.816,95.436,541.001,538.362,0.0
53166.0,STARLINK-4110,PAYLOAD,2022-10-21 22:00:00,15.08809596,0.0001705,53.2195,307.2228,49.0403,332.1818,0.0032179,0.00051255,0.0,0 STARLINK-4110,1 53166U 22083AL  22294.91667824  .00051255  00000-0  32179-2 0  9990,2 53166  53.2195 307.2228 0001705  49.0403 332.1818 15.08809596  1306,6917.973000000001,95.439,541.018,538.659,0.0
53166.0,STARLINK-4110,PAYLOAD,2022-10-22 14:00:01,15.08838083,0.0001862,53.2194,304.2317,41.2517,3.1446,-0.0011979,-0.00019301,0.0,0 STARLINK-4110,1 53166U 22083AL  22295.58334491 -.00019301  00000-0 -11979-2 0  9998,2 53166  53.2194 304.2317 0001862  41.2517   3.1446 15.08838083 15686,6917.886,95.438,541.039,538.4630000000002,0.0
53166.0,STARLINK-4110,PAYLOAD,2022-10-22 22:00:00,15.08806685,0.0001658,53.2197,302.7338,47.0496,8.9418,0.0037077,0.00059162,0.0,0 STARLINK-4110,1 53166U 22083AL  22295.91667824  .00059162  00000-0  37077-2 0  9998,2 53166  53.2197 302.7338 0001658  47.0496   8.9418 15.08806685  1307,6917.982,95.44,540.994,538.7,0.0
53166.0,STARLINK-4110,PAYLOAD,2022-10-23 06:00:00,15.088575199999998,0.0001841,53.2197,301.2389,45.1953,22.3803,-0.00049919,-8.228e-05,0.0,0 STARLINK-4110,1 53166U 22083AL  22296.25001157 -.00008228  00000-0 -49919-3 0  9995,2 53166  53.2197 301.2389 0001841  45.1953  22.3803 15.08857520 15787,6917.8269999999975,95.436,540.965,538.418,0.0
53166.0,STARLINK-4110,PAYLOAD,2022-10-23 14:00:01,15.08872079,0.0001858,53.2195,299.7425,41.4002,37.7766,-0.0019338,-0.0003096,0.0,0 STARLINK-4110,1 53166U 22083AL  22296.58334491 -.00030960  00000-0 -19338-2 0  9990,2 53166  53.2195 299.7425 0001858  41.4002  37.7766 15.08872079  1306,6917.781999999997,95.436,540.933,538.362,0.0
53166.0,STARLINK-4110,PAYLOAD,2022-10-23 22:00:00,15.08825899,0.0001643,53.2197,298.2446,47.0921,43.7139,0.0016922999999999,0.00026737,0.0,0 STARLINK-4110,1 53166U 22083AL  22296.91667824  .00026737  00000-0  16923-2 0  9998,2 53166  53.2197 298.2446 0001643  47.0921  43.7139 15.08825899  1308,6917.9230000000025,95.438,540.925,538.6519999999998,0.0
53166.0,STARLINK-4110,PAYLOAD,2022-10-24 14:00:01,15.08803482,0.0001798,53.2193,295.2533,40.9708,72.994,-0.00048948,-8.062e-05,0.0,0 STARLINK-4110,1 53166U 22083AL  22297.58334491 -.00008062  00000-0 -48948-3 0  9999,2 53166  53.2193 295.2533 0001798  40.9708  72.9940 15.08803482 15981,6917.9919999999975,95.44,541.101,538.613,0.0
53166.0,STARLINK-4110,PAYLOAD,2022-10-24 22:00:00,15.0878486,0.0001614,53.2195,293.7556,47.7689,77.748,0.0029384,0.00046716,0.0,0 STARLINK-4110,1 53166U 22083AL  22297.91667824  .00046716  00000-0  29384-2 0  9993,2 53166  53.2195 293.7556 0001614  47.7689  77.7480 15.08784860  1302,6918.049,95.441,541.031,538.797,0.0
53166.0,STARLINK-4110,PAYLOAD,2022-10-25 14:00:01,15.08826743,0.0001804,53.219,290.7643,43.5588,105.0612,-0.0010505,-0.00016962,0.0,0 STARLINK-4110,1 53166U 22083AL  22298.58334491 -.00016962  00000-0 -10505-2 0  9995,2 53166  53.2190 290.7643 0001804  43.5588 105.0612 15.08826743 16130,6917.920999999999,95.438,541.034,538.538,0.0
53166.0,STARLINK-4110,PAYLOAD,2022-10-25 22:00:01,15.08810077,0.0001659,53.2192,289.2667,50.6345,109.6258,0.0025688,0.00040798,0.0,0 STARLINK-4110,1 53166U 22083AL  22298.91668981  .00040798  00000-0  25688-2 0  9996,2 53166  53.2192 289.2667 0001659  50.6345 109.6258 15.08810077  1301,6917.972,95.439,540.985,538.689,0.0
53166.0,STARLINK-4110,PAYLOAD,2022-10-26 06:00:00,15.08833477,0.0001841999999999,53.2191,287.7721,46.7277,125.0462,-0.00029115,-4.918e-05,0.0,0 STARLINK-4110,1 53166U 22083AL  22299.25001157 -.00004918  00000-0 -29115-3 0  9996,2 53166  53.2191 287.7721 0001842  46.7277 125.0462 15.08833477 16234,6917.9,95.438,541.04,538.491,0.0
53166.0,STARLINK-4110,PAYLOAD,2022-10-26 14:00:01,15.0885283,0.000184,53.2188,286.2752,45.9959,137.3585,-0.0012264,-0.0001976,0.0,0 STARLINK-4110,1 53166U 22083AL  22299.58334491 -.00019760  00000-0 -12264-2 0  9999,2 53166  53.2188 286.2752 0001840  45.9959 137.3585 15.08852830  1302,6917.840999999999,95.437,540.979,538.433,0.0
53166.0,STARLINK-4110,PAYLOAD,2022-10-26 22:00:00,15.08833874,0.0001885,53.2175,284.7787,54.5842,140.4789,0.00021168,3.082e-05,0.0,0 STARLINK-4110,1 53166U 22083AL  22299.91667824  .00003082  00000-0  21168-3 0  9997,2 53166  53.2175 284.7787 0001885  54.5842 140.4789 15.08833874  1303,6917.899,95.438,541.068,538.46,0.0
53166.0,STARLINK-4110,PAYLOAD,2022-10-27 06:00:00,15.0885547,0.0001909999999999,53.219,283.283,47.87,158.6954,0.00026346,3.909e-05,0.0,0 STARLINK-4110,1 53166U 22083AL  22300.25001157  .00003909  00000-0  26346-3 0  9999,2 53166  53.2190 283.2830 0001910  47.8700 158.6954 15.08855470 16385,6917.833000000001,95.437,541.019,538.377,0.0
53166.0,STARLINK-4110,PAYLOAD,2022-10-27 14:00:01,15.08888857,0.0001829,53.219,281.7859,46.1275,172.1128,-0.0042518999999999,-0.00067415,0.0,0 STARLINK-4110,1 53166U 22083AL  22300.58335648 -.00067415  00000-0 -42519-2 0  9993,2 53166  53.2190 281.7859 0001829  46.1275 172.1128 15.08888857  1302,6917.731,95.434,540.861,538.331,0.0
